*******************************************************************************
Ephemeris / WWW_USER Mon Mar 24 08:12:28 2025 Pasadena, USA      / Horizons    
*******************************************************************************
Target body name: (2018 VC)                       {source: JPL#21}
Center body name: Earth (399)                     {source: DE441}
Center-site name: Mauna Kea
*******************************************************************************
Start time      : A.D. 2018-Sep-14 04:35:00.0000 UT      
Stop  time      : A.D. 2018-Sep-14 16:00:00.0000 UT      
Step-size       : 1 minutes
*******************************************************************************
Target pole/equ : undefined
Target radii    : undefined                                                    
Center geodetic : 204.5278, 19.8260847, 4.21024   {E-lon(deg),Lat(deg),Alt(km)}
Center cylindric: 204.5278, 6006.35451, 2151.0229 {E-lon(deg),Dxy(km),Dz(km)}
Center pole/equ : ITRF93                          {East-longitude positive}
Center radii    : 6378.137, 6378.137, 6356.752 km {Equator_a, b, pole_c}       
Target primary  : Sun
Vis. interferer : MOON (R_eq= 1737.400) km        {source: DE441}
Rel. light bend : Sun                             {source: DE441}
Rel. lght bnd GM: 1.3271E+11 km^3/s^2                                          
Small-body perts: Yes                             {source: SB441-N16}
Atmos refraction: NO (AIRLESS)
RA format       : HMS
Time format     : CAL 
Calendar mode   : Mixed Julian/Gregorian
RTS-only print  : NO       
EOP file        : eop.250321.p250617                                           
EOP coverage    : DATA-BASED 1962-JAN-20 TO 2025-MAR-21. PREDICTS-> 2025-JUN-16
Units conversion: 1 au= 149597870.700 km, c= 299792.458 km/s, 1 day= 86400.0 s 
Table cut-offs 1: Elevation (-90.0deg=NO ),Airmass (>38.000=NO), Daylight (YES)
Table cut-offs 2: Solar elongation (  0.0,180.0=NO ),Local Hour Angle( 0.0=NO )
Table cut-offs 3: RA/DEC angular rate (     0.0=NO )                           
*******************************************************************************
Initial IAU76/J2000 heliocentric ecliptic osculating elements (au, days, deg.):
  EPOCH=  2458962.5 ! 2020-Apr-23.00 (TDB)         Residual RMS= .087367       
   EC= .1691367762722357   QR= .9358500167919792   TP= 2458809.0997793972      
   OM= 36.58853997425776   W=  304.3228784920618   IN= 3.701146998496158       
  Equivalent ICRF heliocentric cartesian coordinates (au, au/d):
   X=-6.479543737333916E-01  Y= 9.538692942598190E-01  Z= 5.016232001756915E-01
  VX=-1.316843360643849E-02 VY=-5.467047892625660E-03 VZ=-2.149198049185293E-03
Asteroid physical parameters (km, seconds, rotational period in hours):        
   GM= n.a.                RAD= n.a.               ROTPER= n.a.                
   H= 26.34                G= .150                 B-V= n.a.                   
                           ALBEDO= n.a.            STYP= n.a.                  
*******************************************************************************
 Date__(UT)__HR:MN     R.A._________(ICRF)_________DEC
******************************************************
$$SOE
 2018-Sep-14 12:47     14 09 54.585753 -32 52 17.35354
 2018-Sep-14 12:48     14 09 54.666506 -32 52 18.06701
 2018-Sep-14 12:49     14 09 54.747263 -32 52 18.78110
 2018-Sep-14 12:50     14 09 54.828025 -32 52 19.49580
 2018-Sep-14 12:51     14 09 54.908790 -32 52 20.21112
 2018-Sep-14 12:52     14 09 54.989559 -32 52 20.92705
 2018-Sep-14 12:53     14 09 55.070330 -32 52 21.64360
 2018-Sep-14 12:54     14 09 55.151104 -32 52 22.36076
 2018-Sep-14 12:55     14 09 55.231880 -32 52 23.07855
 2018-Sep-14 12:56     14 09 55.312658 -32 52 23.79694
 2018-Sep-14 12:57     14 09 55.393437 -32 52 24.51596
 2018-Sep-14 12:58     14 09 55.474216 -32 52 25.23559
 2018-Sep-14 12:59     14 09 55.554997 -32 52 25.95583
 2018-Sep-14 13:00     14 09 55.635777 -32 52 26.67670
 2018-Sep-14 13:01     14 09 55.716557 -32 52 27.39817
 2018-Sep-14 13:02     14 09 55.797337 -32 52 28.12027
 2018-Sep-14 13:03     14 09 55.878115 -32 52 28.84298
 2018-Sep-14 13:04     14 09 55.958892 -32 52 29.56631
 2018-Sep-14 13:05     14 09 56.039667 -32 52 30.29026
 2018-Sep-14 13:06     14 09 56.120439 -32 52 31.01482
 2018-Sep-14 13:07     14 09 56.201209 -32 52 31.74000
 2018-Sep-14 13:08     14 09 56.281976 -32 52 32.46579
 2018-Sep-14 13:09     14 09 56.362740 -32 52 33.19220
 2018-Sep-14 13:10     14 09 56.443499 -32 52 33.91923
 2018-Sep-14 13:11     14 09 56.524255 -32 52 34.64687
 2018-Sep-14 13:12     14 09 56.605005 -32 52 35.37513
 2018-Sep-14 13:13     14 09 56.685751 -32 52 36.10401
 2018-Sep-14 13:14     14 09 56.766491 -32 52 36.83350
 2018-Sep-14 13:15     14 09 56.847226 -32 52 37.56361
 2018-Sep-14 13:16     14 09 56.927954 -32 52 38.29433
 2018-Sep-14 13:17     14 09 57.008676 -32 52 39.02567
 2018-Sep-14 13:18     14 09 57.089390 -32 52 39.75762
 2018-Sep-14 13:19     14 09 57.170097 -32 52 40.49019
 2018-Sep-14 13:20     14 09 57.250797 -32 52 41.22337
 2018-Sep-14 13:21     14 09 57.331488 -32 52 41.95717
 2018-Sep-14 13:22     14 09 57.412171 -32 52 42.69158
 2018-Sep-14 13:23     14 09 57.492844 -32 52 43.42660
 2018-Sep-14 13:24     14 09 57.573509 -32 52 44.16224
 2018-Sep-14 13:25     14 09 57.654163 -32 52 44.89850
 2018-Sep-14 13:26     14 09 57.734807 -32 52 45.63537
 2018-Sep-14 13:27     14 09 57.815441 -32 52 46.37285
 2018-Sep-14 13:28     14 09 57.896064 -32 52 47.11094
 2018-Sep-14 13:29     14 09 57.976675 -32 52 47.84964
 2018-Sep-14 13:30     14 09 58.057275 -32 52 48.58896
 2018-Sep-14 13:31     14 09 58.137863 -32 52 49.32889
 2018-Sep-14 13:32     14 09 58.218438 -32 52 50.06943
 2018-Sep-14 13:33     14 09 58.299000 -32 52 50.81059
 2018-Sep-14 13:34     14 09 58.379549 -32 52 51.55235
 2018-Sep-14 13:35     14 09 58.460084 -32 52 52.29472
 2018-Sep-14 13:36     14 09 58.540605 -32 52 53.03771
 2018-Sep-14 13:37     14 09 58.621112 -32 52 53.78130
 2018-Sep-14 13:38     14 09 58.701603 -32 52 54.52550
 2018-Sep-14 13:39     14 09 58.782080 -32 52 55.27032
 2018-Sep-14 13:40     14 09 58.862541 -32 52 56.01574
 2018-Sep-14 13:41     14 09 58.942985 -32 52 56.76176
 2018-Sep-14 13:42     14 09 59.023414 -32 52 57.50840
 2018-Sep-14 13:43     14 09 59.103825 -32 52 58.25564
 2018-Sep-14 13:44     14 09 59.184220 -32 52 59.00349
 2018-Sep-14 13:45     14 09 59.264596 -32 52 59.75195
 2018-Sep-14 13:46     14 09 59.344955 -32 53 00.50101
 2018-Sep-14 13:47     14 09 59.425295 -32 53 01.25068
 2018-Sep-14 13:48     14 09 59.505617 -32 53 02.00095
 2018-Sep-14 13:49     14 09 59.585920 -32 53 02.75183
 2018-Sep-14 13:50     14 09 59.666202 -32 53 03.50331
 2018-Sep-14 13:51     14 09 59.746465 -32 53 04.25539
 2018-Sep-14 13:52     14 09 59.826708 -32 53 05.00807
 2018-Sep-14 13:53     14 09 59.906930 -32 53 05.76136
 2018-Sep-14 13:54     14 09 59.987131 -32 53 06.51525
 2018-Sep-14 13:55     14 10 00.067310 -32 53 07.26973
 2018-Sep-14 13:56     14 10 00.147468 -32 53 08.02482
 2018-Sep-14 13:57     14 10 00.227603 -32 53 08.78051
 2018-Sep-14 13:58     14 10 00.307716 -32 53 09.53680
 2018-Sep-14 13:59     14 10 00.387806 -32 53 10.29368
 2018-Sep-14 14:00     14 10 00.467872 -32 53 11.05116
 2018-Sep-14 14:01     14 10 00.547914 -32 53 11.80924
 2018-Sep-14 14:02     14 10 00.627933 -32 53 12.56792
 2018-Sep-14 14:03     14 10 00.707927 -32 53 13.32719
 2018-Sep-14 14:04     14 10 00.787896 -32 53 14.08705
 2018-Sep-14 14:05     14 10 00.867839 -32 53 14.84751
 2018-Sep-14 14:06     14 10 00.947757 -32 53 15.60857
 2018-Sep-14 14:07     14 10 01.027649 -32 53 16.37021
 2018-Sep-14 14:08     14 10 01.107514 -32 53 17.13245
 2018-Sep-14 14:09     14 10 01.187353 -32 53 17.89528
 2018-Sep-14 14:10     14 10 01.267164 -32 53 18.65869
 2018-Sep-14 14:11     14 10 01.346948 -32 53 19.42270
 2018-Sep-14 14:12     14 10 01.426704 -32 53 20.18730
 2018-Sep-14 14:13     14 10 01.506431 -32 53 20.95248
 2018-Sep-14 14:14     14 10 01.586130 -32 53 21.71825
 2018-Sep-14 14:15     14 10 01.665800 -32 53 22.48461
 2018-Sep-14 14:16     14 10 01.745440 -32 53 23.25155
 2018-Sep-14 14:17     14 10 01.825050 -32 53 24.01908
 2018-Sep-14 14:18     14 10 01.904630 -32 53 24.78719
 2018-Sep-14 14:19     14 10 01.984180 -32 53 25.55588
 2018-Sep-14 14:20     14 10 02.063699 -32 53 26.32516
 2018-Sep-14 14:21     14 10 02.143186 -32 53 27.09501
 2018-Sep-14 14:22     14 10 02.222641 -32 53 27.86545
 2018-Sep-14 14:23     14 10 02.302065 -32 53 28.63646
 2018-Sep-14 14:24     14 10 02.381456 -32 53 29.40806
 2018-Sep-14 14:25     14 10 02.460814 -32 53 30.18023
 2018-Sep-14 14:26     14 10 02.540139 -32 53 30.95297
 2018-Sep-14 14:27     14 10 02.619430 -32 53 31.72630
 2018-Sep-14 14:28     14 10 02.698688 -32 53 32.50019
 2018-Sep-14 14:29     14 10 02.777911 -32 53 33.27466
 2018-Sep-14 14:30     14 10 02.857099 -32 53 34.04971
 2018-Sep-14 14:31     14 10 02.936253 -32 53 34.82532
 2018-Sep-14 14:32     14 10 03.015371 -32 53 35.60150
 2018-Sep-14 14:33     14 10 03.094453 -32 53 36.37826
 2018-Sep-14 14:34     14 10 03.173499 -32 53 37.15558
 2018-Sep-14 14:35     14 10 03.252509 -32 53 37.93347
 2018-Sep-14 14:36     14 10 03.331481 -32 53 38.71192
 2018-Sep-14 14:37     14 10 03.410417 -32 53 39.49094
 2018-Sep-14 14:38     14 10 03.489315 -32 53 40.27053
 2018-Sep-14 14:39     14 10 03.568175 -32 53 41.05067
 2018-Sep-14 14:40     14 10 03.646996 -32 53 41.83138
 2018-Sep-14 14:41     14 10 03.725779 -32 53 42.61265
 2018-Sep-14 14:42     14 10 03.804523 -32 53 43.39448
 2018-Sep-14 14:43     14 10 03.883228 -32 53 44.17687
 2018-Sep-14 14:44     14 10 03.961893 -32 53 44.95981
 2018-Sep-14 14:45     14 10 04.040517 -32 53 45.74331
 2018-Sep-14 14:46     14 10 04.119101 -32 53 46.52737
 2018-Sep-14 14:47     14 10 04.197645 -32 53 47.31197
 2018-Sep-14 14:48     14 10 04.276147 -32 53 48.09714
 2018-Sep-14 14:49     14 10 04.354608 -32 53 48.88285
